STARLINK-30382          
1 57786U 23134R   26068.38151770  .00000140  00000+0  14913-4 0  9996
2 57786  43.0000 195.8850 0001288 255.3449 104.7259 15.26740595139464
TRANSPORTER-12 OBJECT BA
1 62657U 25009BA  26068.70118713  .00011330  00000+0  42733-3 0  9991
2 62657  97.3985 151.1390 0000403 234.6623 125.4579 15.27214003 63739
